[
  {
    "COMMENT": "GENERATED VIA SPACETRACK.ORG API",
    "ORIGINATOR": "JSPOC",
    "NORAD_CAT_ID": "40076",
    "OBJECT_NAME": "TDS 1",
    "OBJECT_TYPE": "PAYLOAD",
    "CLASSIFICATION_TYPE": "U",
    "INTLDES": "14037H",
    "EPOCH": "2016-10-06 06:12:16",
    "EPOCH_MICROSECONDS": "937568",
    "MEAN_MOTION": "14.81260008",
    "ECCENTRICITY": "0.0006194",
    "INCLINATION": "98.3254",
    "RA_OF_ASC_NODE": "15.5097",
    "ARG_OF_PERICENTER": "158.4503",
    "MEAN_ANOMALY": "201.6972",
    "EPHEMERIS_TYPE": "0",
    "ELEMENT_SET_NO": "999",
    "REV_AT_EPOCH": "12143",
    "BSTAR": "2.9351e-05",
    "MEAN_MOTION_DOT": "1.72e-06",
    "MEAN_MOTION_DDOT": "0",
    "FILE": "2096183",
    "TLE_LINE0": "0 TDS 1",
    "TLE_LINE1": "1 40076U 14037H   16280.25852937  .00000172  00000-0  29351-4 0  9994",
    "TLE_LINE2": "2 40076  98.3254  15.5097 0006194 158.4503 201.6972 14.81260008121431",
    "OBJECT_ID": "2014-037H",
    "OBJECT_NUMBER": "40076",
    "SEMIMAJOR_AXIS": "7003.486",
    "PERIOD": "97.214",
    "APOGEE": "629.689",
    "PERIGEE": "621.013"
  },
  {
    "COMMENT": "GENERATED VIA SPACETRACK.ORG API",
    "ORIGINATOR": "JSPOC",
    "NORAD_CAT_ID": "40076",
    "OBJECT_NAME": "TDS 1",
    "OBJECT_TYPE": "PAYLOAD",
    "CLASSIFICATION_TYPE": "U",
    "INTLDES": "14037H",
    "EPOCH": "2016-10-06 17:33:11",
    "EPOCH_MICROSECONDS": "682144",
    "MEAN_MOTION": "14.81260181",
    "ECCENTRICITY": "0.0006188",
    "INCLINATION": "98.3255",
    "RA_OF_ASC_NODE": "16.0008",
    "ARG_OF_PERICENTER": "156.9661",
    "MEAN_ANOMALY": "203.1829",
    "EPHEMERIS_TYPE": "0",
    "ELEMENT_SET_NO": "999",
    "REV_AT_EPOCH": "12150",
    "BSTAR": "2.8358e-05",
    "MEAN_MOTION_DOT": "1.64e-06",
    "MEAN_MOTION_DDOT": "0",
    "FILE": "2096417",
    "TLE_LINE0": "0 TDS 1",
    "TLE_LINE1": "1 40076U 14037H   16280.73138521  .00000164  00000-0  28358-4 0  9990",
    "TLE_LINE2": "2 40076  98.3255  16.0008 0006188 156.9661 203.1829 14.81260181121509",
    "OBJECT_ID": "2014-037H",
    "OBJECT_NUMBER": "40076",
    "SEMIMAJOR_AXIS": "7003.486",
    "PERIOD": "97.214",
    "APOGEE": "629.684",
    "PERIGEE": "621.017"
  },
  {
    "COMMENT": "GENERATED VIA SPACETRACK.ORG API",
    "ORIGINATOR": "JSPOC",
    "NORAD_CAT_ID": "40076",
    "OBJECT_NAME": "TDS 1",
    "OBJECT_TYPE": "PAYLOAD",
    "CLASSIFICATION_TYPE": "U",
    "INTLDES": "14037H",
    "EPOCH": "2016-10-06 20:47:44",
    "EPOCH_MICROSECONDS": "468160",
    "MEAN_MOTION": "14.81260291",
    "ECCENTRICITY": "0.0006301",
    "INCLINATION": "98.3254",
    "RA_OF_ASC_NODE": "16.1409",
    "ARG_OF_PERICENTER": "157.0158",
    "MEAN_ANOMALY": "203.1343",
    "EPHEMERIS_TYPE": "0",
    "ELEMENT_SET_NO": "999",
    "REV_AT_EPOCH": "12152",
    "BSTAR": "2.9819e-05",
    "MEAN_MOTION_DOT": "1.75e-06",
    "MEAN_MOTION_DDOT": "0",
    "FILE": "2096814",
    "TLE_LINE0": "0 TDS 1",
    "TLE_LINE1": "1 40076U 14037H   16280.86648690 +.00000175 +00000-0 +29819-4 0  9992",
    "TLE_LINE2": "2 40076 098.3254 016.1409 0006301 157.0158 203.1343 14.81260291121529",
    "OBJECT_ID": "2014-037H",
    "OBJECT_NUMBER": "40076",
    "SEMIMAJOR_AXIS": "7003.485",
    "PERIOD": "97.214",
    "APOGEE": "629.763",
    "PERIGEE": "620.937"
  },
  {
    "COMMENT": "GENERATED VIA SPACETRACK.ORG API",
    "ORIGINATOR": "JSPOC",
    "NORAD_CAT_ID": "40076",
    "OBJECT_NAME": "TDS 1",
    "OBJECT_TYPE": "PAYLOAD",
    "CLASSIFICATION_TYPE": "U",
    "INTLDES": "14037H",
    "EPOCH": "2016-10-07 01:39:33",
    "EPOCH_MICROSECONDS": "632928",
    "MEAN_MOTION": "14.81260229",
    "ECCENTRICITY": "0.0006324",
    "INCLINATION": "98.3253",
    "RA_OF_ASC_NODE": "16.3511",
    "ARG_OF_PERICENTER": "156.2933",
    "MEAN_ANOMALY": "203.856",
    "EPHEMERIS_TYPE": "0",
    "ELEMENT_SET_NO": "999",
    "REV_AT_EPOCH": "12155",
    "BSTAR": "2.7746e-05",
    "MEAN_MOTION_DOT": "1.59e-06",
    "MEAN_MOTION_DDOT": "0",
    "FILE": "2096614",
    "TLE_LINE0": "0 TDS 1",
    "TLE_LINE1": "1 40076U 14037H   16281.06913927  .00000159  00000-0  27746-4 0  9992",
    "TLE_LINE2": "2 40076  98.3253  16.3511 0006324 156.2933 203.8560 14.81260229121553",
    "OBJECT_ID": "2014-037H",
    "OBJECT_NUMBER": "40076",
    "SEMIMAJOR_AXIS": "7003.486",
    "PERIOD": "97.214",
    "APOGEE": "629.780",
    "PERIGEE": "620.922"
  },
  {
    "COMMENT": "GENERATED VIA SPACETRACK.ORG API",
    "ORIGINATOR": "JSPOC",
    "NORAD_CAT_ID": "40076",
    "OBJECT_NAME": "TDS 1",
    "OBJECT_TYPE": "PAYLOAD",
    "CLASSIFICATION_TYPE": "U",
    "INTLDES": "14037H",
    "EPOCH": "2016-10-07 09:45:55",
    "EPOCH_MICROSECONDS": "604448",
    "MEAN_MOTION": "14.81260419",
    "ECCENTRICITY": "0.000633",
    "INCLINATION": "98.3254",
    "RA_OF_ASC_NODE": "16.7021",
    "ARG_OF_PERICENTER": "155.2191",
    "MEAN_ANOMALY": "204.9325",
    "EPHEMERIS_TYPE": "0",
    "ELEMENT_SET_NO": "999",
    "REV_AT_EPOCH": "12160",
    "BSTAR": "2.8162e-05",
    "MEAN_MOTION_DOT": "1.62e-06",
    "MEAN_MOTION_DDOT": "0",
    "FILE": "2096758",
    "TLE_LINE0": "0 TDS 1",
    "TLE_LINE1": "1 40076U 14037H   16281.40689357  .00000162  00000-0  28162-4 0  9994",
    "TLE_LINE2": "2 40076  98.3254  16.7021 0006330 155.2191 204.9325 14.81260419121604",
    "OBJECT_ID": "2014-037H",
    "OBJECT_NUMBER": "40076",
    "SEMIMAJOR_AXIS": "7003.485",
    "PERIOD": "97.214",
    "APOGEE": "629.783",
    "PERIGEE": "620.917"
  },
  {
    "COMMENT": "GENERATED VIA SPACETRACK.ORG API",
    "ORIGINATOR": "JSPOC",
    "NORAD_CAT_ID": "40076",
    "OBJECT_NAME": "TDS 1",
    "OBJECT_TYPE": "PAYLOAD",
    "CLASSIFICATION_TYPE": "U",
    "INTLDES": "14037H",
    "EPOCH": "2016-10-07 17:52:17",
    "EPOCH_MICROSECONDS": "563008",
    "MEAN_MOTION": "14.8126065",
    "ECCENTRICITY": "0.0006337",
    "INCLINATION": "98.3255",
    "RA_OF_ASC_NODE": "17.0529",
    "ARG_OF_PERICENTER": "154.0369",
    "MEAN_ANOMALY": "206.1166",
    "EPHEMERIS_TYPE": "0",
    "ELEMENT_SET_NO": "999",
    "REV_AT_EPOCH": "12165",
    "BSTAR": "2.9391e-05",
    "MEAN_MOTION_DOT": "1.72e-06",
    "MEAN_MOTION_DDOT": "0",
    "FILE": "2096921",
    "TLE_LINE0": "0 TDS 1",
    "TLE_LINE1": "1 40076U 14037H   16281.74464772  .00000172  00000-0  29391-4 0  9999",
    "TLE_LINE2": "2 40076  98.3255  17.0529 0006337 154.0369 206.1166 14.81260650121652",
    "OBJECT_ID": "2014-037H",
    "OBJECT_NUMBER": "40076",
    "SEMIMAJOR_AXIS": "7003.484",
    "PERIOD": "97.214",
    "APOGEE": "629.787",
    "PERIGEE": "620.911"
  },
  {
    "COMMENT": "GENERATED VIA SPACETRACK.ORG API",
    "ORIGINATOR": "JSPOC",
    "NORAD_CAT_ID": "40076",
    "OBJECT_NAME": "TDS 1",
    "OBJECT_TYPE": "PAYLOAD",
    "CLASSIFICATION_TYPE": "U",
    "INTLDES": "14037H",
    "EPOCH": "2016-10-08 00:21:23",
    "EPOCH_MICROSECONDS": "137632",
    "MEAN_MOTION": "14.81260554",
    "ECCENTRICITY": "0.0006334",
    "INCLINATION": "98.3253",
    "RA_OF_ASC_NODE": "17.3334",
    "ARG_OF_PERICENTER": "153.3062",
    "MEAN_ANOMALY": "206.8466",
    "EPHEMERIS_TYPE": "0",
    "ELEMENT_SET_NO": "999",
    "REV_AT_EPOCH": "12169",
    "BSTAR": "2.7438e-05",
    "MEAN_MOTION_DOT": "1.57e-06",
    "MEAN_MOTION_DDOT": "0",
    "FILE": "2097062",
    "TLE_LINE0": "0 TDS 1",
    "TLE_LINE1": "1 40076U 14037H   16282.01485113  .00000157  00000-0  27438-4 0  9995",
    "TLE_LINE2": "2 40076  98.3253  17.3334 0006334 153.3062 206.8466 14.81260554121693",
    "OBJECT_ID": "2014-037H",
    "OBJECT_NUMBER": "40076",
    "SEMIMAJOR_AXIS": "7003.485",
    "PERIOD": "97.214",
    "APOGEE": "629.786",
    "PERIGEE": "620.913"
  },
  {
    "COMMENT": "GENERATED VIA SPACETRACK.ORG API",
    "ORIGINATOR": "JSPOC",
    "NORAD_CAT_ID": "40076",
    "OBJECT_NAME": "TDS 1",
    "OBJECT_TYPE": "PAYLOAD",
    "CLASSIFICATION_TYPE": "U",
    "INTLDES": "14037H",
    "EPOCH": "2016-10-08 10:05:01",
    "EPOCH_MICROSECONDS": "481856",
    "MEAN_MOTION": "14.81260808",
    "ECCENTRICITY": "0.0006388",
    "INCLINATION": "98.3253",
    "RA_OF_ASC_NODE": "17.7544",
    "ARG_OF_PERICENTER": "152.2249",
    "MEAN_ANOMALY": "207.9305",
    "EPHEMERIS_TYPE": "0",
    "ELEMENT_SET_NO": "999",
    "REV_AT_EPOCH": "12175",
    "BSTAR": "2.8305e-05",
    "MEAN_MOTION_DOT": "1.63e-06",
    "MEAN_MOTION_DDOT": "0",
    "FILE": "2097209",
    "TLE_LINE0": "0 TDS 1",
    "TLE_LINE1": "1 40076U 14037H   16282.42015604  .00000163  00000-0  28305-4 0  9995",
    "TLE_LINE2": "2 40076  98.3253  17.7544 0006388 152.2249 207.9305 14.81260808121757",
    "OBJECT_ID": "2014-037H",
    "OBJECT_NUMBER": "40076",
    "SEMIMAJOR_AXIS": "7003.484",
    "PERIOD": "97.214",
    "APOGEE": "629.823",
    "PERIGEE": "620.875"
  },
  {
    "COMMENT": "GENERATED VIA SPACETRACK.ORG API",
    "ORIGINATOR": "JSPOC",
    "NORAD_CAT_ID": "40076",
    "OBJECT_NAME": "TDS 1",
    "OBJECT_TYPE": "PAYLOAD",
    "CLASSIFICATION_TYPE": "U",
    "INTLDES": "14037H",
    "EPOCH": "2016-10-08 18:11:23",
    "EPOCH_MICROSECONDS": "430912",
    "MEAN_MOTION": "14.81261093",
    "ECCENTRICITY": "0.0006403",
    "INCLINATION": "98.3253",
    "RA_OF_ASC_NODE": "18.1051",
    "ARG_OF_PERICENTER": "151.0027",
    "MEAN_ANOMALY": "209.1549",
    "EPHEMERIS_TYPE": "0",
    "ELEMENT_SET_NO": "999",
    "REV_AT_EPOCH": "12180",
    "BSTAR": "3.0165e-05",
    "MEAN_MOTION_DOT": "1.78e-06",
    "MEAN_MOTION_DDOT": "0",
    "FILE": "2097347",
    "TLE_LINE0": "0 TDS 1",
    "TLE_LINE1": "1 40076U 14037H   16282.75791008  .00000178  00000-0  30165-4 0  9993",
    "TLE_LINE2": "2 40076  98.3253  18.1051 0006403 151.0027 209.1549 14.81261093121801",
    "OBJECT_ID": "2014-037H",
    "OBJECT_NUMBER": "40076",
    "SEMIMAJOR_AXIS": "7003.483",
    "PERIOD": "97.214",
    "APOGEE": "629.832",
    "PERIGEE": "620.863"
  }
]
